ONEWEB-0564             
1 55801U 23029F   25030.18530701 -.00000018  00000+0 -75253-4 0  9996
2 55801  87.9269  14.5506 0001636  74.4173 285.7141 13.20768439 95460
ONEWEB-0638             
1 55802U 23029G   25029.72169215 -.00000155  00000+0 -45145-3 0  9991
2 55802  87.8995  29.8655 0001201  88.7470 271.3797 13.14503178 93259
ONEWEB-0639             
1 55803U 23029H   25029.76005200  .00000047  00000+0  86149-4 0  9997
2 55803  87.9148  45.0584 0002395 121.8376 238.2990 13.19724415 92509
ONEWEB-0640             
1 55804U 23029J   25029.73121017  .00000004  00000+0 -22646-4 0  9996
2 55804  87.8993  29.8547 0001227 110.8938 249.2323 13.14502750 93279
ONEWEB-0641             
1 55805U 23029K   25029.52785665  .00000087  00000+0  18593-3 0  9994
2 55805  87.9144  45.0806 0001991  98.9864 261.1494 13.19726007 92481
ONEWEB-0642             
1 55806U 23029L   25029.75056555  .00000103  00000+0  22460-3 0  9996
2 55806  87.9146  45.0678 0002501 112.1849 247.9549 13.19724870 92503
ONEWEB-0643             
1 55807U 23029M   25029.70107673 -.00000018  00000+0 -82895-4 0  9996
2 55807  87.8995  29.8408 0002604 100.0781 260.0643 13.14503617 93243
ONEWEB-0644             
1 55808U 23029N   25029.97327439  .00000103  00000+0  22580-3 0  9997
2 55808  87.9150  45.0242 0002236 104.6304 255.5077 13.19725404 92532
